{"epoch":1784762836,"count":18316,"objects":[{"id":"41601","name":"SKYSAT C1","type":"PAYLOAD","l1":"1 41601U 16040C   26203.05666916  .00009079  00000-0  25428-3 0  9994","l2":"2 41601  96.9555 232.8956 0000845 190.2367 169.8861 15.36827669563223"},{"id":"41603","name":"LAPAN A3","type":"PAYLOAD","l1":"1 41603U 16040E   26203.62994128  .00003161  00000-0  10046-3 0  9994","l2":"2 41603  97.1511 198.6195 0008405 243.0484 116.9901 15.33310533560242"},{"id":"41727","name":"GAOFEN 3","type":"PAYLOAD","l1":"1 41727U 16049A   26203.60547447  .00000063  00000-0  32288-4 0  9997","l2":"2 41727  98.4027 210.8579 0001793  81.9115 278.2278 14.42219253523751"},{"id":"41771","name":"SKYSAT C4","type":"PAYLOAD","l1":"1 41771U 16058B   26203.01992088  .00018176  00000-0  33019-3 0  9992","l2":"2 41771  96.9178 223.3561 0003520 108.6936 251.4698 15.49596199550864"},{"id":"41772","name":"SKYSAT C5","type":"PAYLOAD","l1":"1 41772U 16058C   26203.58365824  .00006989  00000-0  21610-3 0  9990","l2":"2 41772  97.0452 242.6279 0003352 143.2341 216.9133 15.33789814549173"},{"id":"41773","name":"SKYSAT C2","type":"PAYLOAD","l1":"1 41773U 16058D   26203.48604645  .00012197  00000-0  28038-3 0  9996","l2":"2 41773  97.0165 224.2677 0000660 287.0697  73.0479 15.42800155550497"},{"id":"41774","name":"SKYSAT C3","type":"PAYLOAD","l1":"1 41774U 16058E   26203.06072799  .00024954  00000-0  38777-3 0  9995","l2":"2 41774  96.9001 232.5963 0002801 124.5445 235.6075 15.53929029551527"},{"id":"41785","name":"ALSAT 1B","type":"PAYLOAD","l1":"1 41785U 16059C   26203.58084182  .00000010  00000-0  89714-5 0  9990","l2":"2 41785  97.7765 210.8183 0010744 109.0839 251.1534 14.72296858525787"},{"id":"41787","name":"PATHFINDER 1","type":"PAYLOAD","l1":"1 41787U 16059E   26202.42905010  .00000436  00000-0  84255-4 0  9992","l2":"2 41787  97.8180 200.1622 0029967  96.8090 263.6527 14.67698159524738"},{"id":"41790","name":"SCATSAT 1","type":"PAYLOAD","l1":"1 41790U 16059H   26203.44784817  .00001059  00000-0  14505-3 0  9991","l2":"2 41790  98.1172 267.5749 0055636 133.5881 226.9968 14.79600443106800"},{"id":"41875","name":"GOKTURK-1A","type":"PAYLOAD","l1":"1 41875U 16073A   26203.61031463  .00000193  00000-0  46951-4 0  9991","l2":"2 41875  98.1200  97.7213 0001447  81.9729 278.1637 14.62796287514004"},{"id":"41877","name":"RESOURCESAT 2A","type":"PAYLOAD","l1":"1 41877U 16074A   26203.61391943  .00000452  00000-0  22637-3 0  9998","l2":"2 41877  98.7511 276.8264 0001942  10.5815 349.5403 14.21611241499330"},{"id":"41948","name":"CARTOSAT 2D","type":"PAYLOAD","l1":"1 41948U 17008A   26203.59292125  .00004675  00000-0  22446-3 0  9993","l2":"2 41948  97.4086 262.2336 0006545 118.7516 241.4377 15.19323140522955"},{"id":"42063","name":"SENTINEL 2B","type":"PAYLOAD","l1":"1 42063U 17013A   26203.59213181  .00000387  00000-0  16425-3 0  9999","l2":"2 42063  98.5676 277.8647 0001245  92.4117 267.7208 14.30817802489709"},{"id":"42767","name":"CARTOSAT 2E","type":"PAYLOAD","l1":"1 42767U 17036C   26203.61083135  .00005141  00000-0  24677-3 0  9993","l2":"2 42767  97.4256 262.8252 0004150 162.0528 198.0854 15.19295423503523"},{"id":"42920","name":"FORMOSAT-5","type":"PAYLOAD","l1":"1 42920U 17049A   26203.49989321  .00000051  00000-0  23990-4 0  9999","l2":"2 42920  98.2241 278.0231 0010899 340.7405  19.3376 14.50893970471791"},{"id":"42969","name":"SENTINEL 5P","type":"PAYLOAD","l1":"1 42969U 17064A   26203.30384108  .00000033  00000-0  36599-4 0  9990","l2":"2 42969  98.7929 145.1869 0001192  92.0923 268.0389 14.19524130454546"},{"id":"42987","name":"SKYSAT C11","type":"PAYLOAD","l1":"1 42987U 17068A   26202.85103500  .00030373  00000-0  38249-3 0  9991","l2":"2 42987  97.4385 353.2450 0001484 150.0180 210.1162 15.59590198488647"},{"id":"42988","name":"SKYSAT C10","type":"PAYLOAD","l1":"1 42988U 17068B   26203.30015319  .00010907  00000-0  32129-3 0  9995","l2":"2 42988  97.4541 340.5124 0001522 109.5577 250.5831 15.35216908487740"},{"id":"42989","name":"SKYSAT C9","type":"PAYLOAD","l1":"1 42989U 17068C   26203.34660832  .00013430  00000-0  31312-3 0  9993","l2":"2 42989  97.4462 341.8360 0008033  20.5738 339.5831 15.42337273488177"},{"id":"42990","name":"SKYSAT C8","type":"PAYLOAD","l1":"1 42990U 17068D   26203.34764990  .00010703  00000-0  29232-3 0  9993","l2":"2 42990  97.4558 340.4958 0001320 107.4310 252.7079 15.37590156487710"},{"id":"42991","name":"SKYSAT C7","type":"PAYLOAD","l1":"1 42991U 17068E   26203.34236235  .00010598  00000-0  28988-3 0  9999","l2":"2 42991  97.4570 341.4827 0005044 355.7430   4.3771 15.37538328487778"},{"id":"42992","name":"SKYSAT C6","type":"PAYLOAD","l1":"1 42992U 17068F   26203.30226198  .00008963  00000-0  27261-3 0  9999","l2":"2 42992  97.4608 341.2633 0004845  70.7424 289.4343 15.34254357487707"},{"id":"43111","name":"CARTOSAT 2F","type":"PAYLOAD","l1":"1 43111U 18004A   26203.64375681  .00006503  00000-0  31203-3 0  9992","l2":"2 43111  97.4766 262.9276 0002771 122.5125 237.6378 15.19215487472710"},{"id":"43259","name":"GAOFEN 1-02","type":"PAYLOAD","l1":"1 43259U 18031A   26203.60702973  .00001005  00000-0  15174-3 0  9990","l2":"2 43259  98.0505 266.0316 0001556 238.2505 121.8553 14.76479724447920"},{"id":"43260","name":"GAOFEN 1-03","type":"PAYLOAD","l1":"1 43260U 18031B   26203.58517359  .00000554  00000-0  87007-4 0  9994","l2":"2 43260  98.0498 265.8640 0001821 351.7173   8.4006 14.76469662447919"},{"id":"43262","name":"GAOFEN 1-04","type":"PAYLOAD","l1":"1 43262U 18031D   26203.62872940  .00000853  00000-0  12998-3 0  9999","l2":"2 43262  98.0507 266.1027 0000852  55.4434 304.6856 14.76445980447917"},{"id":"43437","name":"SENTINEL 3B","type":"PAYLOAD","l1":"1 43437U 18039A   26203.46502394  .00000070  00000-0  46991-4 0  9998","l2":"2 43437  98.6230 270.4877 0001304 118.2175 241.9137 14.26737858429158"},{"id":"43461","name":"GAOFEN-5","type":"PAYLOAD","l1":"1 43461U 18043A   26202.86205922  .00000260  00000-0  63632-4 0  9992","l2":"2 43461  98.4596 175.1818 0001688  17.5078 342.6180 14.60626560436758"},{"id":"43484","name":"GAOFEN 6","type":"PAYLOAD","l1":"1 43484U 18048A   26203.58381694  .00000334  00000-0  55599-4 0  9998","l2":"2 43484  98.0949 266.3029 0011946  60.9805 299.2600 14.76388861438613"}]}