OBJECT_NAME,OBJECT_ID,EPOCH,MEAN_MOTION,ECCENTRICITY,INCLINATION,RA_OF_ASC_NODE,ARG_OF_PERICENTER,MEAN_ANOMALY,EPHEMERIS_TYPE,CLASSIFICATION_TYPE,NORAD_CAT_ID,ELEMENT_SET_NO,REV_AT_EPOCH,BSTAR,MEAN_MOTION_DOT,MEAN_MOTION_DDOT
SKYSAT-C1,2016-040C,2026-07-22T01:21:36.215424,15.36827669,.00008445,96.9555,232.8956,190.2367,169.8861,0,U,41601,999,56322,.25428289E-3,.9079E-4,0
LAPAN-A3,2016-040E,2026-07-22T15:07:06.926592,15.33310533,.00084046,97.1511,198.6195,243.0484,116.9901,0,U,41603,999,56024,.1004563E-3,.3161E-4,0
GAOFEN-3,2016-049A,2026-07-22T14:31:52.994208,14.42219253,.00017926,98.4027,210.8579,81.9115,278.2278,0,U,41727,999,52375,.32287919E-4,.63E-6,0
SKYSAT-C4,2016-058B,2026-07-22T00:28:41.164032,15.49596199,.00035204,96.9178,223.3561,108.6936,251.4698,0,U,41771,999,55086,.3301851E-3,.18176E-3,0
SKYSAT-C5,2016-058C,2026-07-22T14:00:28.071936,15.33789814,.00033521,97.0452,242.6279,143.2341,216.9133,0,U,41772,999,54917,.2161027E-3,.6989E-4,0
SKYSAT-C2,2016-058D,2026-07-22T11:39:54.413280,15.42800155,.00006601,97.0165,224.2677,287.0697,73.0479,0,U,41773,999,55049,.28038375E-3,.12197E-3,0
SKYSAT-C3,2016-058E,2026-07-22T01:27:26.898336,15.53929029,.00028007,96.9001,232.5963,124.5445,235.6075,0,U,41774,999,55152,.38776584E-3,.24954E-3,0
ALSAT-1B,2016-059C,2026-07-22T13:56:24.733248,14.72296858,.00107442,97.7765,210.8183,109.0839,251.1534,0,U,41785,999,52578,.8971404E-5,.1E-6,0
PATHFINDER 1,2016-059E,2026-07-21T10:17:49.928640,14.67698159,.00299672,97.8180,200.1622,96.8090,263.6527,0,U,41787,999,52473,.84255385E-4,.436E-5,0
SCATSAT 1,2016-059H,2026-07-22T10:44:54.081888,14.79600443,.00556362,98.1172,267.5749,133.5881,226.9968,0,U,41790,999,10680,.14504709E-3,.1059E-4,0
GOKTURK 1A,2016-073A,2026-07-22T14:38:51.184032,14.62796287,.00014469,98.1200,97.7213,81.9729,278.1637,0,U,41875,999,51400,.46950967E-4,.193E-5,0
RESOURCESAT-2A,2016-074A,2026-07-22T14:44:02.638752,14.21611241,.00019417,98.7511,276.8264,10.5815,349.5403,0,U,41877,999,49933,.2263728E-3,.452E-5,0
CARTOSAT-2D,2017-008A,2026-07-22T14:13:48.396000,15.19323140,.00065454,97.4086,262.2336,118.7516,241.4377,0,U,41948,999,52295,.22445832E-3,.4675E-4,0
SENTINEL-2B,2017-013A,2026-07-22T14:12:40.188384,14.30817802,.00012449,98.5676,277.8647,92.4117,267.7208,0,U,42063,999,48970,.16424572E-3,.387E-5,0
CARTOSAT-2E,2017-036C,2026-07-22T14:39:35.828640,15.19295423,.00041495,97.4256,262.8252,162.0528,198.0854,0,U,42767,999,50352,.24677093E-3,.5141E-4,0
FORMOSAT-5,2017-049A,2026-07-22T11:59:50.773344,14.50893970,.00108993,98.2241,278.0231,340.7405,19.3376,0,U,42920,999,47179,.23989786E-4,.51E-6,0
SENTINEL-5P,2017-064A,2026-07-22T07:17:31.869312,14.19524130,.00011922,98.7929,145.1869,92.0923,268.0389,0,U,42969,999,45454,.36598501E-4,.33E-6,0
SKYSAT-C11,2017-068A,2026-07-21T20:25:29.424000,15.59590198,.00014843,97.4385,353.2450,150.0180,210.1162,0,U,42987,999,48864,.38249056E-3,.30373E-3,0
SKYSAT-C10,2017-068B,2026-07-22T07:12:13.235616,15.35216908,.00015216,97.4541,340.5124,109.5577,250.5831,0,U,42988,999,48774,.32128923E-3,.10907E-3,0
SKYSAT-C9,2017-068C,2026-07-22T08:19:06.958848,15.42337273,.00080325,97.4462,341.8360,20.5738,339.5831,0,U,42989,999,48817,.31311584E-3,.1343E-3,0
SKYSAT-C8,2017-068D,2026-07-22T08:20:36.951360,15.37590156,.00013201,97.4558,340.4958,107.4310,252.7079,0,U,42990,999,48771,.29231569E-3,.10703E-3,0
SKYSAT-C7,2017-068E,2026-07-22T08:13:00.107040,15.37538328,.00050445,97.4570,341.4827,355.7430,4.3771,0,U,42991,999,48777,.2898814E-3,.10598E-3,0
SKYSAT-C6,2017-068F,2026-07-22T07:15:15.435072,15.34254357,.00048453,97.4608,341.2633,70.7424,289.4343,0,U,42992,999,48770,.27260935E-3,.8963E-4,0
CARTOSAT-2F,2018-004A,2026-07-22T15:27:00.588384,15.19215487,.00027712,97.4766,262.9276,122.5125,237.6378,0,U,43111,999,47271,.31202907E-3,.6503E-4,0
GAOFEN-1 02,2018-031A,2026-07-22T14:34:07.368672,14.76479724,.00015557,98.0505,266.0316,238.2505,121.8553,0,U,43259,999,44792,.15174432E-3,.1005E-4,0
GAOFEN-1 03,2018-031B,2026-07-22T14:02:38.998176,14.76469662,.00018206,98.0498,265.8640,351.7173,8.4006,0,U,43260,999,44791,.87006741E-4,.554E-5,0
GAOFEN-1 04,2018-031D,2026-07-22T15:05:22.220160,14.76445980,.00008519,98.0507,266.1027,55.4434,304.6856,0,U,43262,999,44791,.12997543E-3,.853E-5,0
SENTINEL-3B,2018-039A,2026-07-22T11:09:38.068416,14.26737858,.00013042,98.6230,270.4877,118.2175,241.9137,0,U,43437,999,42915,.46991424E-4,.7E-6,0
GAOFEN-5 01,2018-043A,2026-07-21T20:41:21.916608,14.60626560,.00016883,98.4596,175.1818,17.5078,342.6180,0,U,43461,999,43675,.63631562E-4,.26E-5,0
GAOFEN-6,2018-048A,2026-07-22T14:00:41.783616,14.76388861,.00119464,98.0949,266.3029,60.9805,299.2600,0,U,43484,999,43861,.55599046E-4,.334E-5,0
